#cP2024  5 31 23 10  0.00000000      12    u+U  IGS14 FIT  AIUB
## 0000      0.00000000    900.00000000   00000   0.0000000000000
+   10   G01G02G03G04G05G06G07G08G09G10  0  0  0  0  0  0  0
++          0  0  0  0  0  0  0  0  0  0  0  0  0  0  0  0
%c M  cc GPS ccc cccc cccc cccc cccc ccccc ccccc ccccc ccccc
%f  0.0000000  0.000000000  0.00000000000  0.000000000000000
%i    0    0    0    0         0         0         0         0
/* SYNTHETIC TEST EPHEMERIS - NOT REAL NAVIGATION DATA
*  2024  5 31 23 10  0.00000000
PG01   3056.427545  16267.653255  20771.502311     -4.328792
PG02 -20138.859053   9068.175202  14752.225409     14.191639
PG03 -19155.349705   6488.878574  17216.289743     19.756282
PG04 -17728.304835  15997.571168 -11628.350030      7.340970
PG05  -9261.521395  24457.066034   4637.859686    -11.547778
PG06   5469.839924  25171.744257   6472.846533    -19.451793
PG07   4873.534227  26089.044010   1021.786075     -9.012222
PG08  18283.621846  10595.286971  16089.831142     10.264782
*  2024  5 31 23 25  0.00000000
PG01    718.025005  15660.278607  21440.002660     -3.042468
PG02 -19224.454619   7506.805923  16718.307612     15.089698
PG03 -20898.255613   5811.592729  15327.162238     19.440405
PG04 -18905.094319  16273.510988  -9121.614381      6.101572
PG05  -9652.739875  24677.132055   1815.865208    -12.571200
PG06   5260.231912  25769.831660   3698.558697    -19.318310
PG07   4557.165806  25880.229338   3857.404468     -7.844558
PG08  16356.610980  10891.447618  17868.162917     11.393082
*  2024  5 31 23 40  0.00000000
PG01  -1702.245199  15163.232290  21739.649211     -1.743115
PG02 -18281.189828   5726.309767  18396.768057     15.923570
PG03 -22450.756052   5275.770449  13174.346240     19.042137
PG04 -19806.091392  16475.655354  -6457.950482      4.837331
PG05  -9908.428302  24620.733402  -1037.369414    -13.539077
PG06   5041.204430  26062.984388    860.640858    -19.099961
PG07   4135.643216  25385.378300   6626.660075     -6.640732
PG08  14265.205577  11310.927281  19339.090824     12.475593
*  2024  5 31 23 55  0.00000000
PG01  -4157.668107  14790.630206  21665.286844     -0.436298
PG02 -17348.626857   3748.508347  19758.730510     16.689682
PG03 -23775.539049   4860.857409  10794.878794     18.563185
PG04 -20431.901489  16565.179055  -3683.184005      3.553660
PG05 -10062.598042  24273.019442  -3872.757133    -14.447265
PG06   4775.499236  26051.099988  -1992.083445    -18.797683
PG07   3578.277970  24626.726577   9281.910625     -5.405900
PG08  12053.522753  11867.013299  20477.309018     13.507679
*  2024  6  1  0 10  0.00000000
PG01  -6599.735921  14548.721297  21218.194890      0.872388
PG02 -16462.826886   1602.743909  20780.763771     17.384755
PG03 -24841.336905   4540.229101   8229.696256     18.005598
PG04 -20791.652897  16505.352371   -845.052031      2.256057
PG05 -10151.971750  23627.554022  -6641.517940    -15.291874
PG06   4427.023973  25742.839833  -4810.535947    -18.412768
PG07   2859.527329  23633.615501  11777.475189     -4.145350
PG08   9768.471681  12565.244646  21263.235596     14.484921
*  2024  6  1  0 25  0.00000000
PG01  -8979.822676  14435.681178  20406.065119      2.177337
PG02 -15654.956593   -675.051730  21445.284778     18.005812
PG03 -25624.048594   4282.403248   5522.930027     17.371765
PG04 -20902.500622  16263.103543   2007.618217      0.950077
PG05 -10214.380662  22686.649723  -9296.018075    -16.069289
PG06   3962.446373  25155.259130  -7546.227988    -17.946867
PG07   1960.183965  22441.358199  14070.420072     -2.864480
PG08   7458.107031  13403.081550  21683.349475     15.403133
*  2024  6  1  0 40  0.00000000
PG01 -11250.866211  14441.730726  19242.869410      3.472964
PG02 -14950.097063  -3043.543299  21740.861115     18.550193
PG03 -26107.597467   4052.445162   2721.147311     16.664400
PG04 -20788.829817  15810.448999   4825.749402     -0.358686
PG05 -10287.125062  21461.375929 -11790.589518    -16.776180
PG06   3352.683684  24313.125771 -10152.094727    -17.401973
PG07    868.320403  21089.888289  16121.297455     -1.568775
PG08   5169.945401  14369.898399  21730.423018     16.258385
*  2024  6  1  0 55  0.00000000
PG01 -13368.993285  14549.574858  17748.619383      4.753718
PG02 -14366.301080  -5457.388261  21662.407684     19.015568
PG03 -26284.491454   3813.510915   -127.450021     15.886532
PG04 -20481.190111  15125.735418   7560.858396     -1.664629
PG05 -10405.362023  19971.239990 -14082.315662    -17.409519
PG06   2574.228931  23247.954425 -12583.304831    -16.780420
PG07   -420.049129  19622.243279  17894.824041     -0.263782
PG08   2949.309090  15447.300668  21403.646371     17.047013
*  2024  6  1  1 10  0.00000000
PG01 -15295.025901  14735.144258  15949.022114      6.014116
PG02 -13913.935114  -7868.790029  21211.274198     19.399944
PG03 -26156.064359   3528.467863  -2973.854704     15.041492
PG04 -20015.002567  14194.644939  10165.890385     -2.962159
PG05 -10600.583486  18243.553316 -16131.769654    -17.966596
PG06   1610.261867  21996.793235 -14798.031764    -16.084869
PG07  -1900.615884  18082.941148  19360.488080      1.044910
PG08    837.760392  16609.754030  20708.641399     17.765641
*  2024  6  1  1 25  0.00000000
PG01 -16995.811414  14968.611103  13875.037875      7.248761
PG02 -13595.331258 -10229.148998  20395.221959     19.701674
PG03 -25732.389154   3161.529067  -5769.097191     14.132898
PG04 -19429.089692  13010.923960  12596.028399     -4.245720
PG05 -10899.244158  16312.506399 -17903.692685    -18.445024
PG06    451.500836  20600.809997 -16758.173363    -15.318300
PG07  -3560.747286  16516.312692  20493.074290      2.351696
PG08  -1128.313852  17825.501686  19657.364968     18.411191
*  2024  6  1  1 40  0.00000000
PG01 -18445.325856  15215.639147  11562.347488      8.452365
PG02 -13404.762330 -12490.748493  19228.290329     19.919467
PG03 -25031.866758   2679.837589  -8465.088132     13.164642
PG04 -18764.085766  11576.806605  14809.464346     -5.509815
PG05 -11321.592932  14217.987927 -19367.600595    -18.842755
PG06   -903.238255  19103.732347 -18430.007354    -14.483994
PG07  -5379.783123  14964.853813  21273.097656      3.650981
PG08  -2918.913606  19057.734774  18267.903236     18.980899
*  2024  6  1  1 55  0.00000000
PG01 -19625.508573  15438.819456   9050.738480      9.619775
PG02 -13328.740840 -14608.411275  17730.555198     20.052389
PG03 -24080.506295   2054.938590 -11015.445700     12.140869
PG04 -18060.789263   9903.115713  16768.118272     -6.749032
PG05 -11880.753608  12004.193023 -20498.308310    -19.158085
PG06  -2446.798299  17550.202125 -19784.771504    -13.585525
PG07  -7329.646609  13467.661171  21687.138658      4.937202
PG08  -4511.386900  20265.970863  16564.160504     19.472325
EOF
