3.04                O                   G                   RINEX VERSION / TYPE
SYNTH               TEST                20240601 000000 UTC PGM / RUN BY / DATE
 -2248562.1597  5050353.2992  3170398.7354                  APPROX POSITION XYZ
     0                                                      RCV CLOCK OFFS APPL
G    4 C1C C2W L1C L2W                                      SYS / # / OBS TYPES
  2024     6     1     0    10   0.0000000GPS         TIME OF FIRST OBS
                                                            END OF HEADER
> 2024 06 01 00 10  0.0000000  0  8      
G01  27602080.092    27602082.402   145149871.9890  113105864.846  
G02  23064718.555    23064721.550   121306018.8160   94526223.766  
G03  21512239.280    21512240.861   113147835.4680   88169186.151  
G04  28017215.060    28017216.454   147331857.4450  114806072.317  
G05  32487019.634    32487021.771   170820962.7590  133109252.288  
G06  29599313.627    29599316.924   155646089.6340  121284656.669  
G07  23535529.723    23535532.918   123780833.0920   96454572.286  
G08  23993111.614    23993113.731   126185594.3160   98328400.597  
> 2024 06 01 00 10 30.0000000  0  8      
G01  27602499.111    27602501.698   145152074.8940  113107581.310  
G02  23065213.023    23065215.459   121308614.8810   94528246.808  
G03  21527321.409    21527322.793   113227092.0020   88230944.646  
G04  28032760.040    28032761.385   147413546.6060  114869726.164  
G05  32487556.736    32487558.875   170823784.0460  133111450.515  
G06  29583440.384    29583444.094   155562676.9870  121219659.752  
G07  23514989.403    23514992.607   123672893.3450   96370463.549  
G08  23983529.374    23983532.050   126135243.1300   98289166.044  
> 2024 06 01 00 11  0.0000000  0  8      
G01  27602994.662    27602996.982   145154676.7950  113109608.686  
G02  23065806.372    23065808.515   121311731.9540   94530675.829  
G03  21542477.642    21542479.487   113306741.7680   88293009.548  
G04  28048312.182    28048313.701   147495274.3020  114933410.026  
G05  32488075.528    32488077.741   170826509.9490  133113574.415  
G06  29567552.857    29567556.538   155479186.8920  121154602.496  
G07  23494470.011    23494472.897   123565062.6530   96286439.787  
G08  23974001.027    23974003.306   126085169.8330   98250148.015  
> 2024 06 01 00 11 30.0000000  0  8      
G01  27603565.054    27603567.911   145157677.1590  113111946.560  
G02  23066498.023    23066500.577   121315369.1210   94533510.129  
G03  21557708.813    21557710.591   113386782.7041   88355379.253  
G04  28063872.072    28063873.132   147577039.8170  114997123.351  
G05  32488575.979    32488578.512   170829140.7840  133115624.235  
G06  29551651.180    29551654.417   155395620.6430  121089485.903  
G07  23473971.211    23473974.495   123457343.7460   96202503.142  
G08  23964526.091    23964527.986   126035377.2010   98211348.676  
> 2024 06 01 00 12  0.0000000  0  8      
G01  27604211.972    27604214.642   145161075.4200  113114594.496  
G02  23067289.137    23067291.275   121319525.4370   94536748.963  
G03  21573014.411    21573015.833   113467212.7570   88418052.163  
G04  28079438.519    28079439.762   147658842.4270  115060865.576  
G05  32489058.646    32489061.340   170831676.8520  133117600.216  
G06  29535735.070    29535738.069   155311979.5140  121024310.976  
G07  23453494.460    23453497.865   123349739.3760   96118655.749  
G08  23955104.504    23955106.615   125985867.9770   98172770.174  
